ICEYE-X40               
1 60549U 24149CK  26202.16845208  .00001755  00000+0  15315-3 0  9995
2 60549  97.6800 278.1192 0003271 347.2707  12.8432 14.98101188105163
SATELIOT_1              
1 60550U 24149CL  26203.15883291  .00002116  00000+0  18320-3 0  9992
2 60550  97.6738 278.4744 0004967 331.3751  28.7198 14.98185888105307
BRO-14                  
1 60551U 24149CM  26203.17189192  .00000942  00000+0  88536-4 0  9996
2 60551  97.6862 278.3205 0006196 355.3315   4.7847 14.96250974105228
SATELIOT_3              
1 60552U 24149CN  26203.20155527  .00001310  00000+0  11536-3 0  9991
2 60552  97.6803 279.3417 0004351 335.2971  24.8043 14.98176032105322
BRO-15                  
1 60553U 24149CP  26203.15466678  .00001069  00000+0  99791-4 0  9999
2 60553  97.6790 277.8725 0007031 341.9882  18.1089 14.96231129105239
UM5-RIBAT               
1 60554U 24149CQ  26203.13348691  .00001858  00000+0  14930-3 0  9999
2 60554  97.6591 280.4583 0000551 246.9291 113.1876 15.01239728105431
UM5-EOSAT               
1 60555U 24149CR  26203.15506341  .00002472  00000+0  19432-3 0  9995
2 60555  97.6777 281.5029 0008791  17.0906 343.0613 15.01759283105468
LASARSAT                
1 62391U 24247Q   26202.06206775  .00027288  00000+0  50950-3 0  9993
2 62391  44.9738  71.5646 0008248 202.6776 157.3752 15.48302336 88561
CROCUBE                 
1 62394U 24247T   26202.65944481  .00041735  00000+0  71515-3 0  9997
2 62394  44.9713  64.9220 0008646 212.7388 147.2968 15.50548927 88696
TEVEL2-4                
1 63213U 25052D   26203.18371493  .00021346  00000+0  61522-3 0  9992
2 63213  97.3852  99.6543 0002876  37.6826 322.4619 15.35744990 75480
TEVEL2-5                
1 63214U 25052E   26202.94768145  .00020059  00000+0  58210-3 0  9990
2 63214  97.3850  99.3550 0002922  40.5078 319.6383 15.35543714 75441
TEVEL2-6                
1 63215U 25052F   26202.24396586  .00014542  00000+0  42379-3 0  9999
2 63215  97.3856  98.6345 0003085  43.9320 316.2168 15.35478834 75332
TEVEL2-1                
1 63217U 25052H   26201.95933923  .00012768  00000+0  37939-3 0  9994
2 63217  97.3828  97.9321 0003745  47.7905 312.3656 15.34894951 75276
TEVEL2-3                
1 63218U 25052J   26203.19126495  .00020629  00000+0  60877-3 0  9993
2 63218  97.3841  99.1918 0003537  48.5551 311.5996 15.35007108 75463
TEVEL2-2                
1 63219U 25052K   26202.22019497  .00013942  00000+0  41374-3 0  9991
2 63219  97.3827  98.1963 0003809  47.4460 312.7104 15.34915096 75317
TEVEL2-9                
1 63237U 25052AD  26202.24254238  .00012991  00000+0  41133-3 0  9993
2 63237  97.3890  97.5180 0007083  39.6084 320.5675 15.32853308 75241
TEVEL2-7                
1 63238U 25052AE  26202.94320536  .00016998  00000+0  54215-3 0  9992
2 63238  97.3894  98.1186 0007135  37.8377 322.3365 15.32558839 75340
TEVEL2-8                
1 63239U 25052AF  26202.49473660  .00014980  00000+0  47863-3 0  9990
2 63239  97.3893  97.6468 0007229  39.9501 320.2272 15.32528866 75276
FORESAIL-1 PRIME        
1 66778U 25276DS  26203.17716175  .00003851  00000+0  18738-3 0  9990
2 66778  97.4184 275.8111 0002318  27.6529 332.4829 15.18978526 35718
